UFO 11 (USA 174)        
1 28117U 03057A   26087.88725138 -.00000116  00000+0  00000+0 0  9996
2 28117   8.8860  34.2115 0003119 316.2968 230.6270  1.00272267 81642
